{
  "type": "FeatureCollection",
  "features": [
    {
      "type": "Feature",
      "properties": {
        "norad_id": 55973,
        "name": "TIANMU-1 03",
        "group": "weather",
        "lat": 30.023457712023895,
        "lon": -25.72371999046999,
        "alt_km": 441.937803934743,
        "timestamp": "2025-12-13T05:42:57.139873+00:00",
        "meta_object_name": "TIANMU-1 03",
        "meta_object_id": "2023-039A",
        "meta_epoch": "2025-12-12T08:48:30.623040",
        "meta_mean_motion": 15.40906348,
        "meta_eccentricity": 0.0004432,
        "meta_inclination": 97.5108,
        "meta_ra_of_asc_node": 149.0082,
        "meta_arg_of_pericenter": 61.7788,
        "meta_mean_anomaly": 298.3905,
        "meta_ephemeris_type": 0,
        "meta_classification_type": "U",
        "meta_norad_cat_id": 55973,
        "meta_element_set_no": 999,
        "meta_rev_at_epoch": 15200,
        "meta_bstar": 0.00053132553,
        "meta_mean_motion_dot": 0.00021795,
        "meta_mean_motion_ddot": 0,
        "tle_line1": "1 55973U 23039A   25346.36702110  .00021795  00000+0  53133-3 0  9997",
        "tle_line2": "2 55973  97.5108 149.0082 0004432  61.7788 298.3905 15.40906348152009"
      },
      "geometry": {
        "type": "Point",
        "coordinates": [
          -25.72371999046999,
          30.023457712023895
        ]
      }
    },
    {
      "type": "Feature",
      "properties": {
        "norad_id": 55974,
        "name": "TIANMU-1 04",
        "group": "weather",
        "lat": -80.45166940617814,
        "lon": -82.50234510803324,
        "alt_km": 452.68027398369395,
        "timestamp": "2025-12-13T05:42:57.139887+00:00",
        "meta_object_name": "TIANMU-1 04",
        "meta_object_id": "2023-039B",
        "meta_epoch": "2025-12-12T08:19:01.953696",
        "meta_mean_motion": 15.41241543,
        "meta_eccentricity": 0.00050896,
        "meta_inclination": 97.5041,
        "meta_ra_of_asc_node": 148.1784,
        "meta_arg_of_pericenter": 56.7309,
        "meta_mean_anomaly": 303.4424,
        "meta_ephemeris_type": 0,
        "meta_classification_type": "U",
        "meta_norad_cat_id": 55974,
        "meta_element_set_no": 999,
        "meta_rev_at_epoch": 15200,
        "meta_bstar": 0.00053498631,
        "meta_mean_motion_dot": 0.00022194,
        "meta_mean_motion_ddot": 0,
        "tle_line1": "1 55974U 23039B   25346.34655039  .00022194  00000+0  53499-3 0  9992",
        "tle_line2": "2 55974  97.5041 148.1784 0005089  56.7309 303.4424 15.41241543152001"
      },
      "geometry": {
        "type": "Point",
        "coordinates": [
          -82.50234510803324,
          -80.45166940617814
        ]
      }
    },
    {
      "type": "Feature",
      "properties": {
        "norad_id": 55975,
        "name": "TIANMU-1 05",
        "group": "weather",
        "lat": -63.743859845850636,
        "lon": 165.09592734595122,
        "alt_km": 452.98193957878993,
        "timestamp": "2025-12-13T05:42:57.139903+00:00",
        "meta_object_name": "TIANMU-1 05",
        "meta_object_id": "2023-039C",
        "meta_epoch": "2025-12-12T08:10:36.416928",
        "meta_mean_motion": 15.40862542,
        "meta_eccentricity": 0.00043647,
        "meta_inclination": 97.5087,
        "meta_ra_of_asc_node": 148.6646,
        "meta_arg_of_pericenter": 78.9786,
        "meta_mean_anomaly": 281.1951,
        "meta_ephemeris_type": 0,
        "meta_classification_type": "U",
        "meta_norad_cat_id": 55975,
        "meta_element_set_no": 999,
        "meta_rev_at_epoch": 15198,
        "meta_bstar": 0.00052456581,
        "meta_mean_motion_dot": 0.00021484,
        "meta_mean_motion_ddot": 0,
        "tle_line1": "1 55975U 23039C   25346.34069927  .00021484  00000+0  52457-3 0  9992",
        "tle_line2": "2 55975  97.5087 148.6646 0004364  78.9786 281.1951 15.40862542151984"
      },
      "geometry": {
        "type": "Point",
        "coordinates": [
          165.09592734595122,
          -63.743859845850636
        ]
      }
    },
    {
      "type": "Feature",
      "properties": {
        "norad_id": 55976,
        "name": "TIANMU-1 06",
        "group": "weather",
        "lat": -70.71026226733251,
        "lon": -52.09097152813603,
        "alt_km": 452.65726913853996,
        "timestamp": "2025-12-13T05:42:57.139919+00:00",
        "meta_object_name": "TIANMU-1 06",
        "meta_object_id": "2023-039D",
        "meta_epoch": "2025-12-12T08:22:10.989120",
        "meta_mean_motion": 15.41294362,
        "meta_eccentricity": 0.00046568,
        "meta_inclination": 97.5098,
        "meta_ra_of_asc_node": 149.1377,
        "meta_arg_of_pericenter": 74.0172,
        "meta_mean_anomaly": 286.1587,
        "meta_ephemeris_type": 0,
        "meta_classification_type": "U",
        "meta_norad_cat_id": 55976,
        "meta_element_set_no": 999,
        "meta_rev_at_epoch": 15200,
        "meta_bstar": 0.00054281072,
        "meta_mean_motion_dot": 0.00022559,
        "meta_mean_motion_ddot": 0,
        "tle_line1": "1 55976U 23039D   25346.34873830  .00022559  00000+0  54281-3 0  9990",
        "tle_line2": "2 55976  97.5098 149.1377 0004656  74.0172 286.1587 15.41294362152008"
      },
      "geometry": {
        "type": "Point",
        "coordinates": [
          -52.09097152813603,
          -70.71026226733251
        ]
      }
    },
    {
      "type": "Feature",
      "properties": {
        "norad_id": 56232,
        "name": "FENGYUN 3G",
        "group": "weather",
        "lat": -2.200483426671568,
        "lon": -136.96930235271503,
        "alt_km": 412.4095234001288,
        "timestamp": "2025-12-13T05:42:57.139932+00:00",
        "meta_object_name": "FENGYUN 3G",
        "meta_object_id": "2023-055A",
        "meta_epoch": "2025-12-12T06:34:28.707168",
        "meta_mean_motion": 15.5360363,
        "meta_eccentricity": 0.00092661,
        "meta_inclination": 49.9933,
        "meta_ra_of_asc_node": 229.8586,
        "meta_arg_of_pericenter": 146.3193,
        "meta_mean_anomaly": 213.8365,
        "meta_ephemeris_type": 0,
        "meta_classification_type": "U",
        "meta_norad_cat_id": 56232,
        "meta_element_set_no": 999,
        "meta_rev_at_epoch": 15095,
        "meta_bstar": 0.00067846894,
        "meta_mean_motion_dot": 0.00043969,
        "meta_mean_motion_ddot": 0,
        "tle_line1": "1 56232U 23055A   25346.27394337  .00043969  00000+0  67847-3 0  9996",
        "tle_line2": "2 56232  49.9933 229.8586 0009266 146.3193 213.8365 15.53603630150957"
      },
      "geometry": {
        "type": "Point",
        "coordinates": [
          -136.96930235271503,
          -2.200483426671568
        ]
      }
    },
    {
      "type": "Feature",
      "properties": {
        "norad_id": 57166,
        "name": "METEOR-M2 3",
        "group": "weather",
        "lat": -76.11943319059976,
        "lon": 78.73057940383589,
        "alt_km": 818.8991300074176,
        "timestamp": "2025-12-13T05:42:57.139946+00:00",
        "meta_object_name": "METEOR-M2 3",
        "meta_object_id": "2023-091A",
        "meta_epoch": "2025-12-12T08:09:52.230240",
        "meta_mean_motion": 14.24026017,
        "meta_eccentricity": 0.00039285,
        "meta_inclination": 98.6379,
        "meta_ra_of_asc_node": 39.8865,
        "meta_arg_of_pericenter": 9.9816,
        "meta_mean_anomaly": 350.1441,
        "meta_ephemeris_type": 0,
        "meta_classification_type": "U",
        "meta_norad_cat_id": 57166,
        "meta_element_set_no": 999,
        "meta_rev_at_epoch": 12792,
        "meta_bstar": 2.9407963e-05,
        "meta_mean_motion_dot": 2.4e-07,
        "meta_mean_motion_ddot": 0,
        "tle_line1": "1 57166U 23091A   25346.34018785  .00000024  00000+0  29408-4 0  9998",
        "tle_line2": "2 57166  98.6379  39.8865 0003928   9.9816 350.1441 14.24026017127929"
      },
      "geometry": {
        "type": "Point",
        "coordinates": [
          78.73057940383589,
          -76.11943319059976
        ]
      }
    },
    {
      "type": "Feature",
      "properties": {
        "norad_id": 57399,
        "name": "TIANMU-1 07",
        "group": "weather",
        "lat": -64.7046345994413,
        "lon": 52.78864962287529,
        "alt_km": 491.9611948969923,
        "timestamp": "2025-12-13T05:42:57.139959+00:00",
        "meta_object_name": "TIANMU-1 07",
        "meta_object_id": "2023-101A",
        "meta_epoch": "2025-12-12T08:00:01.753632",
        "meta_mean_motion": 15.28063179,
        "meta_eccentricity": 0.00056214,
        "meta_inclination": 97.288,
        "meta_ra_of_asc_node": 36.1918,
        "meta_arg_of_pericenter": 82.7243,
        "meta_mean_anomaly": 277.4636,
        "meta_ephemeris_type": 0,
        "meta_classification_type": "U",
        "meta_norad_cat_id": 57399,
        "meta_element_set_no": 999,
        "meta_rev_at_epoch": 13309,
        "meta_bstar": 0.00040040666,
        "meta_mean_motion_dot": 0.00010895,
        "meta_mean_motion_ddot": 0,
        "tle_line1": "1 57399U 23101A   25346.33335363  .00010895  00000+0  40041-3 0  9993",
        "tle_line2": "2 57399  97.2880  36.1918 0005621  82.7243 277.4636 15.28063179133090"
      },
      "geometry": {
        "type": "Point",
        "coordinates": [
          52.78864962287529,
          -64.7046345994413
        ]
      }
    }
  ]
}